IRIDIUM 39              
1 25042U 97069D   25345.91026174  .00001248  00000+0  31973-3 0  9993
2 25042  86.3915 134.9873 0019677  74.7532 285.5846 14.49503504474705
IRIDIUM 38              
1 25043U 97069E   25346.21251867  .00000782  00000+0  25057-3 0  9995
2 25043  86.3970 158.3295 0001198 158.1380 201.9870 14.38312987471541
IRIDIUM 42              
1 25077U 97077A   25346.22904463  .00000711  00000+0  23568-3 0  9996
2 25077  86.3977 164.7090 0001281  99.2771 260.8571 14.36531245466758
IRIDIUM 44              
1 25078U 97077B   25345.98048426  .00000681  00000+0  20835-3 0  9997
2 25078  86.3965 146.2761 0003160 125.3974 234.7520 14.40431374469293
IRIDIUM 45              
1 25104U 97082A   25346.21808747  .00046413  00000+0  13118-2 0  9998
2 25104  86.3540 320.9359 0099855  23.0281 337.5396 15.31205592479192
IRIDIUM 24              
1 25105U 97082B   25346.13906215  .00000734  00000+0  21618-3 0  9990
2 25105  86.3911   4.8073 0010479 199.4481 160.6321 14.42326697468867
IRIDIUM 51              
1 25262U 98018A   25346.19685197  .00132642  00000+0  14217-2 0  9993
2 25262  86.3730 326.5241 0047498 276.9359  82.6505 15.61972757474564
IRIDIUM 57              
1 25273U 98019B   25346.28437126  .00000568  00000+0  18869-3 0  9992
2 25273  86.3959  70.5810 0002070  97.8977 262.2455 14.36051203450345
